NORAD_CAT_ID,OBJECT_NAME,OBJECT_TYPE,EPOCH,MEAN_MOTION,ECCENTRICITY,INCLINATION,RA_OF_ASC_NODE,ARG_OF_PERICENTER,MEAN_ANOMALY,BSTAR,MEAN_MOTION_DOT,MEAN_MOTION_DDOT,TLE_LINE0,TLE_LINE1,TLE_LINE2,SEMIMAJOR_AXIS,PERIOD,APOGEE,PERIGEE,DECAYED
53847.0,STARLINK-4777,PAYLOAD,2023-06-14 04:48:25,15.0883958,0.0001136,53.2178,100.9347,94.6052,265.507,1.3109e-05,-7.9e-07,0.0,0 STARLINK-4777,1 53847U 22114AF  23165.20029931 -.00000079  00000-0  13109-4 0  9995,2 53847  53.2178 100.9347 0001136  94.6052 265.5070 15.08839580 41542,6917.882,95.438,540.533,538.961,0.0
53847.0,STARLINK-4777,PAYLOAD,2023-06-14 19:06:54,15.08829235,0.0001264,53.2183,98.2596,104.1078,256.0055,0.00016585,2.352e-05,0.0,0 STARLINK-4777,1 53847U 22114AF  23165.79646222  .00002352  00000-0  16585-3 0  9992,2 53847  53.2183  98.2596 0001264 104.1078 256.0055 15.08829235 42174,6917.913,95.438,540.653,538.904,0.0
53847.0,STARLINK-4777,PAYLOAD,2023-06-15 04:39:13,15.08827575,0.0001132,53.217,96.4734,94.0409,266.0713,0.00027157,4.035e-05,0.0,0 STARLINK-4777,1 53847U 22114AF  23166.19390087  .00004035  00000-0  27157-3 0  9999,2 53847  53.2170  96.4734 0001132  94.0409 266.0713 15.08827575 42237,6917.918,95.438,540.566,539.0,0.0
53847.0,STARLINK-4777,PAYLOAD,2023-06-16 01:19:13,15.0884307,9.85e-05,53.2167,92.6073,102.0398,258.0704,3.2005e-05,2.22e-06,0.0,0 STARLINK-4777,1 53847U 22114AF  23167.05501828  .00000222  00000-0  32005-4 0  9995,2 53847  53.2167  92.6073 0000985 102.0398 258.0704 15.08843070 41822,6917.871,95.437,540.417,539.055,0.0
53847.0,STARLINK-4777,PAYLOAD,2023-06-16 04:29:59,15.0884955,0.0001017,53.2164,92.0119,97.1646,262.9462,7.677e-05,9.35e-06,0.0,0 STARLINK-4777,1 53847U 22114AF  23167.18749257  .00000935  00000-0  76770-4 0  9997,2 53847  53.2164  92.0119 0001017  97.1646 262.9462 15.08849550 41847,6917.851,95.437,540.42,539.013,0.0
53847.0,STARLINK-4777,PAYLOAD,2023-06-16 12:26:55,15.08847277,9.79e-05,53.2161,90.5241,99.2577,260.8525,6.3461e-05,7.23e-06,0.0,0 STARLINK-4777,1 53847U 22114AF  23167.51869295  .00000723  00000-0  63461-4 0  9997,2 53847  53.2161  90.5241 0000979  99.2577 260.8525 15.08847277 42432,6917.858,95.437,540.4,539.046,0.0
53847.0,STARLINK-4777,PAYLOAD,2023-06-17 01:10:00,15.08843607,0.0001176,53.216,88.1455,103.1087,257.0036,0.00011897,1.606e-05,0.0,0 STARLINK-4777,1 53847U 22114AF  23168.04861212  .00001606  00000-0  11897-3 0  9993,2 53847  53.2160  88.1455 0001176 103.1087 257.0036 15.08843607 41978,6917.869,95.437,540.548,538.921,0.0
53847.0,STARLINK-4777,PAYLOAD,2023-06-17 04:20:45,15.08853914,0.0001094,53.2175,87.5506,98.3983,261.7133,8.8728e-05,1.125e-05,0.0,0 STARLINK-4777,1 53847U 22114AF  23168.18108524  .00001125  00000-0  88728-4 0  9992,2 53847  53.2175  87.5506 0001094  98.3983 261.7133 15.08853914 41997,6917.838,95.437,540.46,538.946,0.0
53847.0,STARLINK-4777,PAYLOAD,2023-06-17 12:17:42,15.0883588,0.0001232,53.2158,86.0641,104.8853,255.2276,-8.902e-06,-4.3e-06,0.0,0 STARLINK-4777,1 53847U 22114AF  23168.51229919 -.00000430  00000-0 -89020-5 0  9998,2 53847  53.2158  86.0641 0001232 104.8853 255.2276 15.08835880 42589,6917.893,95.438,540.61,538.906,0.0
53847.0,STARLINK-4777,PAYLOAD,2023-06-18 04:11:34,15.08836652,0.0001256,53.2166,83.0925,99.1573,260.9561,-0.00011181,-2.067e-05,0.0,0 STARLINK-4777,1 53847U 22114AF  23169.17470457 -.00002067  00000-0 -11181-3 0  9995,2 53847  53.2166  83.0925 0001256  99.1573 260.9561 15.08836652 42680,6917.891,95.438,540.625,538.887,0.0
53847.0,STARLINK-4777,PAYLOAD,2023-06-18 18:30:02,15.08836556,0.0001039,53.2174,80.416,97.5501,262.5609,-4.8284e-07,-2.95e-06,0.0,0 STARLINK-4777,1 53847U 22114AF  23169.77086166 -.00000295  00000-0 -48284-6 0  9999,2 53847  53.2174  80.4160 0001039  97.5501 262.5609 15.08836556 42238,6917.891,95.438,540.475,539.037,0.0
53847.0,STARLINK-4777,PAYLOAD,2023-06-19 04:02:20,15.08849074,0.000112,53.2164,78.6321,94.3289,265.7831,8.7867e-06,-1.48e-06,0.0,0 STARLINK-4777,1 53847U 22114AF  23170.16829443 -.00000148  00000-0  87867-5 0  9992,2 53847  53.2164  78.6321 0001120  94.3289 265.7831 15.08849074 42291,6917.853,95.437,540.492,538.943,0.0
53847.0,STARLINK-4777,PAYLOAD,2023-06-19 10:23:53,15.08843366,0.0001074,53.2172,77.4413,91.4311,268.6805,-1.7414e-05,-5.65e-06,0.0,0 STARLINK-4777,1 53847U 22114AF  23170.43325848 -.00000565  00000-0 -17414-4 0  9996,2 53847  53.2172  77.4413 0001074  91.4311 268.6805 15.08843366 42337,6917.87,95.437,540.478,538.992,0.0
53847.0,STARLINK-4777,PAYLOAD,2023-06-20 03:53:08,15.08833366,0.0001108,53.2171,74.1706,98.1726,261.9391,8.8403e-05,1.119e-05,0.0,0 STARLINK-4777,1 53847U 22114AF  23171.16190559  .00001119  00000-0  88403-4 0  9996,2 53847  53.2171  74.1706 0001108  98.1726 261.9391 15.08833366 42444,6917.901,95.438,540.532,538.999,0.0
53847.0,STARLINK-4777,PAYLOAD,2023-06-20 10:14:41,15.08833243,9.97e-05,53.2168,72.9813,89.1957,270.915,7.5895e-05,9.2e-06,0.0,0 STARLINK-4777,1 53847U 22114AF  23171.42686747  .00000920  00000-0  75895-4 0  9994,2 53847  53.2168  72.9813 0000997  89.1957 270.9150 15.08833243 43028,6917.901,95.438,540.456,539.076,0.0
53847.0,STARLINK-4777,PAYLOAD,2023-06-20 21:22:23,15.08839653,0.000105,53.2174,70.8994,99.4063,260.7048,3.2459e-05,2.29e-06,0.0,0 STARLINK-4777,1 53847U 22114AF  23171.89054588  .00000229  00000-0  32459-4 0  9998,2 53847  53.2174  70.8994 0001050  99.4063 260.7048 15.08839653 43096,6917.881,95.438,540.473,539.02,0.0
53847.0,STARLINK-4777,PAYLOAD,2023-06-21 10:05:27,15.08846895,9.35e-05,53.2165,68.5223,98.9368,261.173,4.685e-05,4.58e-06,0.0,0 STARLINK-4777,1 53847U 22114AF  23172.42046013  .00000458  00000-0  46850-4 0  9996,2 53847  53.2165  68.5223 0000935  98.9368 261.1730 15.08846895 42636,6917.859,95.437,540.371,539.077,0.0
53847.0,STARLINK-4777,PAYLOAD,2023-06-22 01:59:20,15.088372,0.0001128,53.2171,65.5478,84.9668,275.1453,6.258e-06,-1.88e-06,0.0,0 STARLINK-4777,1 53847U 22114AF  23173.08287092 -.00000188  00000-0  62580-5 0  9993,2 53847  53.2171  65.5478 0001128  84.9668 275.1453 15.08837200 42733,6917.889,95.438,540.534,538.974,0.0
53847.0,STARLINK-4777,PAYLOAD,2023-06-23 01:50:06,15.08846966,0.0001055,53.2167,61.0878,88.3476,271.7637,8.346e-05,1.041e-05,0.0,0 STARLINK-4777,1 53847U 22114AF  23174.07646404  .00001041  00000-0  83460-4 0  9996,2 53847  53.2167  61.0878 0001055  88.3476 271.7637 15.08846966 42888,6917.859,95.437,540.454,538.994,0.0
53847.0,STARLINK-4777,PAYLOAD,2023-06-23 16:08:35,15.08834611,0.0001159,53.2172,58.4107,92.942,267.1705,0.00011214,1.497e-05,0.0,0 STARLINK-4777,1 53847U 22114AF  23174.67263135  .00001497  00000-0  11214-3 0  9990,2 53847  53.2172  58.4107 0001159  92.9420 267.1705 15.08834611 42973,6917.897,95.438,540.564,538.96,0.0
53847.0,STARLINK-4777,PAYLOAD,2023-06-24 01:40:53,15.08842806,0.0001115,53.2168,56.626,95.2818,264.8302,9.7662e-05,1.267e-05,0.0,0 STARLINK-4777,1 53847U 22114AF  23175.07006730  .00001267  00000-0  97662-4 0  9998,2 53847  53.2168  56.6260 0001115  95.2818 264.8302 15.08842806 43037,6917.872,95.437,540.508,538.965,0.0
53847.0,STARLINK-4777,PAYLOAD,2023-06-26 01:22:27,15.08843916,0.0001081,53.2169,47.7059,89.2089,270.9027,7.0038e-05,8.27e-06,0.0,0 STARLINK-4777,1 53847U 22114AF  23177.05726686  .00000827  00000-0  70038-4 0  9996,2 53847  53.2169  47.7059 0001081  89.2089 270.9027 15.08843916 43338,6917.868,95.437,540.481,538.986,0.0
53847.0,STARLINK-4777,PAYLOAD,2023-06-26 15:40:56,15.08834915,0.0001079,53.2154,45.0298,81.709,278.4024,3.3608e-05,2.47e-06,0.0,0 STARLINK-4777,1 53847U 22114AF  23177.65343484  .00000247  00000-0  33608-4 0  9991,2 53847  53.2154  45.0298 0001079  81.7090 278.4024 15.08834915 43423,6917.896,95.438,540.507,539.014,0.0
53847.0,STARLINK-4777,PAYLOAD,2023-06-26 22:02:28,15.08841271,0.0001056,53.2162,43.8398,88.1107,272.0006,8.2254e-05,1.022e-05,0.0,0 STARLINK-4777,1 53847U 22114AF  23177.91839010  .00001022  00000-0  82254-4 0  9998,2 53847  53.2162  43.8398 0001056  88.1107 272.0006 15.08841271 43461,6917.877,95.437,540.472,539.011,0.0
53847.0,STARLINK-4777,PAYLOAD,2023-06-27 20:17:53,15.08837804,0.0001139,53.2175,39.6783,82.5295,277.5827,3.2627e-05,2.31e-06,0.0,0 STARLINK-4777,1 53847U 22114AF  23178.84575693  .00000231  00000-0  32627-4 0  9995,2 53847  53.2175  39.6783 0001139  82.5295 277.5827 15.08837804 43608,6917.887,95.438,540.54,538.964,0.0
53847.0,STARLINK-4777,PAYLOAD,2023-06-28 01:04:02,15.08844181,0.0001149,53.2176,38.7856,81.7154,278.3968,9.2084e-05,1.178e-05,0.0,0 STARLINK-4777,1 53847U 22114AF  23179.04447175  .00001178  00000-0  92084-4 0  9995,2 53847  53.2176  38.7856 0001149  81.7154 278.3968 15.08844181 43630,6917.868,95.437,540.527,538.938,0.0
53847.0,STARLINK-4777,PAYLOAD,2023-06-28 18:33:17,15.08834773,0.0001323,53.2184,35.5144,105.5103,254.6035,4.5729e-05,4.4e-06,0.0,0 STARLINK-4777,1 53847U 22114AF  23179.77312041  .00000440  00000-0  45729-4 0  9993,2 53847  53.2184  35.5144 0001323 105.5103 254.6035 15.08834773 43747,6917.896,95.438,540.677,538.846,0.0
53847.0,STARLINK-4777,PAYLOAD,2023-06-30 13:28:42,15.08836459,0.0001117,53.2177,27.4859,90.4586,269.6534,9.1323e-05,1.166e-05,0.0,0 STARLINK-4777,1 53847U 22114AF  23181.56160035  .00001166  00000-0  91323-4 0  9994,2 53847  53.2177  27.4859 0001117  90.4586 269.6534 15.08836459 44014,6917.891,95.438,540.529,538.983,0.0
53847.0,STARLINK-4777,PAYLOAD,2023-07-01 18:05:38,15.08841115,0.0001213,53.2176,22.133,89.3388,270.7743,6.1303e-05,6.88e-06,0.0,0 STARLINK-4777,1 53847U 22114AF  23182.75391867  .00000688  00000-0  61303-4 0  9998,2 53847  53.2176  22.1330 0001213  89.3388 270.7743 15.08841115 44192,6917.877,95.437,540.581,538.903,0.0
53847.0,STARLINK-4777,PAYLOAD,2023-07-02 22:42:34,15.08843849,0.0001245,53.2177,16.7804,86.2584,273.855,8.24e-05,1.024e-05,0.0,0 STARLINK-4777,1 53847U 22114AF  23183.94623660  .00001024  00000-0  82400-4 0  9995,2 53847  53.2177  16.7804 0001245  86.2584 273.8550 15.08843849 44373,6917.869,95.437,540.595,538.872,0.0
